[{"OBJECT_NAME":"STARLINK-30310","OBJECT_ID":"2023-131B","EPOCH":"2026-01-16T22:27:25.152192","MEAN_MOTION":15.02534894,"ECCENTRICITY":0.00015333,"INCLINATION":43.0035,"RA_OF_ASC_NODE":92.6098,"ARG_OF_PERICENTER":270.9012,"MEAN_ANOMALY":89.1655,"EPHEMERIS_TYPE":0,"CLASSIFICATION_TYPE":"U","NORAD_CAT_ID":57733,"ELEMENT_SET_NO":999,"REV_AT_EPOCH":13215,"BSTAR":2.5763917e-5,"MEAN_MOTION_DOT":1.44e-6,"MEAN_MOTION_DDOT":0},{"OBJECT_NAME":"STARLINK-30365","OBJECT_ID":"2023-131C","EPOCH":"2026-01-16T21:44:25.425312","MEAN_MOTION":15.02535807,"ECCENTRICITY":0.00013911,"INCLINATION":43.0034,"RA_OF_ASC_NODE":93.2147,"ARG_OF_PERICENTER":278.681,"MEAN_ANOMALY":81.3874,"EPHEMERIS_TYPE":0,"CLASSIFICATION_TYPE":"U","NORAD_CAT_ID":57734,"ELEMENT_SET_NO":999,"REV_AT_EPOCH":13213,"BSTAR":-7.397346e-6,"MEAN_MOTION_DOT":-3.04e-6,"MEAN_MOTION_DDOT":0},{"OBJECT_NAME":"STARLINK-30371","OBJECT_ID":"2023-131D","EPOCH":"2026-01-16T14:47:57.328800","MEAN_MOTION":15.02535358,"ECCENTRICITY":0.0001623,"INCLINATION":43.0034,"RA_OF_ASC_NODE":94.5169,"ARG_OF_PERICENTER":279.0889,"MEAN_ANOMALY":80.9769,"EPHEMERIS_TYPE":0,"CLASSIFICATION_TYPE":"U","NORAD_CAT_ID":57735,"ELEMENT_SET_NO":999,"REV_AT_EPOCH":13209,"BSTAR":3.71385e-6,"MEAN_MOTION_DOT":-1.54e-6,"MEAN_MOTION_DDOT":0},{"OBJECT_NAME":"STARLINK-30352","OBJECT_ID":"2023-131E","EPOCH":"2026-01-16T14:33:33.994080","MEAN_MOTION":15.02538413,"ECCENTRICITY":0.00011634,"INCLINATION":43.0028,"RA_OF_ASC_NODE":94.4384,"ARG_OF_PERICENTER":266.2535,"MEAN_ANOMALY":93.8174,"EPHEMERIS_TYPE":0,"CLASSIFICATION_TYPE":"U","NORAD_CAT_ID":57736,"ELEMENT_SET_NO":999,"REV_AT_EPOCH":13209,"BSTAR":5.0363895e-5,"MEAN_MOTION_DOT":4.77e-6,"MEAN_MOTION_DDOT":0},{"OBJECT_NAME":"STARLINK-30344","OBJECT_ID":"2023-131F","EPOCH":"2026-01-16T21:28:26.879520","MEAN_MOTION":15.02537095,"ECCENTRICITY":0.00015585,"INCLINATION":43.0035,"RA_OF_ASC_NODE":93.1697,"ARG_OF_PERICENTER":273.5966,"MEAN_ANOMALY":86.4698,"EPHEMERIS_TYPE":0,"CLASSIFICATION_TYPE":"U","NORAD_CAT_ID":57737,"ELEMENT_SET_NO":999,"REV_AT_EPOCH":13213,"BSTAR":1.6011635e-5,"MEAN_MOTION_DOT":1.3e-7,"MEAN_MOTION_DDOT":0},{"OBJECT_NAME":"STARLINK-30351","OBJECT_ID":"2023-131G","EPOCH":"2026-01-16T21:58:48.433440","MEAN_MOTION":15.02451132,"ECCENTRICITY":0.00010315,"INCLINATION":43.0097,"RA_OF_ASC_NODE":93.3253,"ARG_OF_PERICENTER":260.6975,"MEAN_ANOMALY":99.3751,"EPHEMERIS_TYPE":0,"CLASSIFICATION_TYPE":"U","NORAD_CAT_ID":57738,"ELEMENT_SET_NO":999,"REV_AT_EPOCH":13213,"BSTAR":0.0011624125,"MEAN_MOTION_DOT":0.00015498,"MEAN_MOTION_DDOT":0},{"OBJECT_NAME":"STARLINK-30242","OBJECT_ID":"2023-131H","EPOCH":"2026-01-16T20:43:03.396000","MEAN_MOTION":15.02538211,"ECCENTRICITY":0.00013024,"INCLINATION":43.0016,"RA_OF_ASC_NODE":68.0332,"ARG_OF_PERICENTER":277.1864,"MEAN_ANOMALY":82.8831,"EPHEMERIS_TYPE":0,"CLASSIFICATION_TYPE":"U","NORAD_CAT_ID":57739,"ELEMENT_SET_NO":999,"REV_AT_EPOCH":13242,"BSTAR":-8.127119e-6,"MEAN_MOTION_DOT":-3.13e-6,"MEAN_MOTION_DDOT":0},{"OBJECT_NAME":"STARLINK-30331","OBJECT_ID":"2023-131J","EPOCH":"2026-01-16T08:58:18.417792","MEAN_MOTION":15.27590637,"ECCENTRICITY":0.0001082,"INCLINATION":43.0032,"RA_OF_ASC_NODE":34.8527,"ARG_OF_PERICENTER":250.8362,"MEAN_ANOMALY":109.2373,"EPHEMERIS_TYPE":0,"CLASSIFICATION_TYPE":"U","NORAD_CAT_ID":57740,"ELEMENT_SET_NO":999,"REV_AT_EPOCH":13277,"BSTAR":7.8857694e-5,"MEAN_MOTION_DOT":1.909e-5,"MEAN_MOTION_DDOT":0},{"OBJECT_NAME":"STARLINK-30364","OBJECT_ID":"2023-131K","EPOCH":"2026-01-16T21:34:51.292992","MEAN_MOTION":15.02543331,"ECCENTRICITY":0.00014499,"INCLINATION":43.0052,"RA_OF_ASC_NODE":93.1998,"ARG_OF_PERICENTER":278.2617,"MEAN_ANOMALY":81.8061,"EPHEMERIS_TYPE":0,"CLASSIFICATION_TYPE":"U","NORAD_CAT_ID":57741,"ELEMENT_SET_NO":999,"REV_AT_EPOCH":13213,"BSTAR":8.6298466e-5,"MEAN_MOTION_DOT":9.62e-6,"MEAN_MOTION_DDOT":0},{"OBJECT_NAME":"STARLINK-30308","OBJECT_ID":"2023-131L","EPOCH":"2026-01-16T21:54:01.158624","MEAN_MOTION":15.02535885,"ECCENTRICITY":0.00012965,"INCLINATION":43.004,"RA_OF_ASC_NODE":93.2984,"ARG_OF_PERICENTER":272.2459,"MEAN_ANOMALY":87.8235,"EPHEMERIS_TYPE":0,"CLASSIFICATION_TYPE":"U","NORAD_CAT_ID":57742,"ELEMENT_SET_NO":999,"REV_AT_EPOCH":13214,"BSTAR":4.8268635e-5,"MEAN_MOTION_DOT":4.48e-6,"MEAN_MOTION_DDOT":0},{"OBJECT_NAME":"STARLINK-30361","OBJECT_ID":"2023-131M","EPOCH":"2026-01-16T21:30:02.551104","MEAN_MOTION":15.02537837,"ECCENTRICITY":0.00014031,"INCLINATION":43.0034,"RA_OF_ASC_NODE":93.1702,"ARG_OF_PERICENTER":271.8415,"MEAN_ANOMALY":88.2266,"EPHEMERIS_TYPE":0,"CLASSIFICATION_TYPE":"U","NORAD_CAT_ID":57743,"ELEMENT_SET_NO":999,"REV_AT_EPOCH":13213,"BSTAR":1.32314e-7,"MEAN_MOTION_DOT":-2.02e-6,"MEAN_MOTION_DDOT":0},{"OBJECT_NAME":"STARLINK-30363","OBJECT_ID":"2023-131N","EPOCH":"2026-01-16T20:26:42.067392","MEAN_MOTION":15.02542025,"ECCENTRICITY":0.00016197,"INCLINATION":43.0032,"RA_OF_ASC_NODE":80.9291,"ARG_OF_PERICENTER":285.4491,"MEAN_ANOMALY":74.6172,"EPHEMERIS_TYPE":0,"CLASSIFICATION_TYPE":"U","NORAD_CAT_ID":57744,"ELEMENT_SET_NO":999,"REV_AT_EPOCH":13227,"BSTAR":-1.362317e-5,"MEAN_MOTION_DOT":-3.88e-6,"MEAN_MOTION_DDOT":0},{"OBJECT_NAME":"STARLINK-30362","OBJECT_ID":"2023-131P","EPOCH":"2026-01-16T21:25:14.828736","MEAN_MOTION":15.02539095,"ECCENTRICITY":0.00014229,"INCLINATION":43.0023,"RA_OF_ASC_NODE":93.1458,"ARG_OF_PERICENTER":275.6064,"MEAN_ANOMALY":84.4616,"EPHEMERIS_TYPE":0,"CLASSIFICATION_TYPE":"U","NORAD_CAT_ID":57745,"ELEMENT_SET_NO":999,"REV_AT_EPOCH":13213,"BSTAR":1.738871e-6,"MEAN_MOTION_DOT":-1.8e-6,"MEAN_MOTION_DDOT":0},{"OBJECT_NAME":"STARLINK-30350","OBJECT_ID":"2023-131Q","EPOCH":"2026-01-16T22:08:23.949888","MEAN_MOTION":15.02538227,"ECCENTRICITY":0.0001633,"INCLINATION":43.0023,"RA_OF_ASC_NODE":93.3548,"ARG_OF_PERICENTER":274.6484,"MEAN_ANOMALY":85.4172,"EPHEMERIS_TYPE":0,"CLASSIFICATION_TYPE":"U","NORAD_CAT_ID":57746,"ELEMENT_SET_NO":999,"REV_AT_EPOCH":13213,"BSTAR":6.827368e-6,"MEAN_MOTION_DOT":-1.11e-6,"MEAN_MOTION_DDOT":0},{"OBJECT_NAME":"STARLINK-30307","OBJECT_ID":"2023-131R","EPOCH":"2026-01-16T21:26:50.959104","MEAN_MOTION":15.02535843,"ECCENTRICITY":0.00010626,"INCLINATION":43.0032,"RA_OF_ASC_NODE":93.155,"ARG_OF_PERICENTER":285.6953,"MEAN_ANOMALY":74.3772,"EPHEMERIS_TYPE":0,"CLASSIFICATION_TYPE":"U","NORAD_CAT_ID":57747,"ELEMENT_SET_NO":999,"REV_AT_EPOCH":13213,"BSTAR":8.785031e-6,"MEAN_MOTION_DOT":-8.5e-7,"MEAN_MOTION_DDOT":0},{"OBJECT_NAME":"STARLINK-30356","OBJECT_ID":"2023-131S","EPOCH":"2026-01-16T21:15:39.314880","MEAN_MOTION":15.02538681,"ECCENTRICITY":0.00012857,"INCLINATION":43.003,"RA_OF_ASC_NODE":93.0959,"ARG_OF_PERICENTER":275.7254,"MEAN_ANOMALY":84.3442,"EPHEMERIS_TYPE":0,"CLASSIFICATION_TYPE":"U","NORAD_CAT_ID":57748,"ELEMENT_SET_NO":999,"REV_AT_EPOCH":13213,"BSTAR":3.0432774e-5,"MEAN_MOTION_DOT":2.08e-6,"MEAN_MOTION_DDOT":0}]
