STARLINK-30310          
1 57733U 23131B   26016.93570778  .00000144  00000+0  25764-4 0  9992
2 57733  43.0035  92.6098 0001533 270.9012  89.1655 15.02534894132156
STARLINK-30365          
1 57734U 23131C   26016.90584983 -.00000304  00000+0 -73973-5 0  9999
2 57734  43.0034  93.2147 0001391 278.6810  81.3874 15.02535807132131
STARLINK-30371          
1 57735U 23131D   26016.61663575 -.00000154  00000+0  37139-5 0  9999
2 57735  43.0034  94.5169 0001623 279.0889  80.9769 15.02535358132093
STARLINK-30352          
1 57736U 23131E   26016.60664345  .00000477  00000+0  50364-4 0  9996
2 57736  43.0028  94.4384 0001163 266.2535  93.8174 15.02538413132098
STARLINK-30344          
1 57737U 23131F   26016.89475555  .00000013  00000+0  16012-4 0  9999
2 57737  43.0035  93.1697 0001558 273.5966  86.4698 15.02537095132136
STARLINK-30351          
1 57738U 23131G   26016.91583835  .00015498  00000+0  11624-2 0  9999
2 57738  43.0097  93.3253 0001031 260.6975  99.3751 15.02451132132138
STARLINK-30242          
1 57739U 23131H   26016.86323375 -.00000313  00000+0 -81271-5 0  9995
2 57739  43.0016  68.0332 0001302 277.1864  82.8831 15.02538211132420
STARLINK-30331          
1 57740U 23131J   26016.37382428  .00001909  00000+0  78858-4 0  9993
2 57740  43.0032  34.8527 0001082 250.8362 109.2373 15.27590637132773
STARLINK-30364          
1 57741U 23131K   26016.89920478  .00000962  00000+0  86298-4 0  9999
2 57741  43.0052  93.1998 0001449 278.2617  81.8061 15.02543331132131
STARLINK-30308          
1 57742U 23131L   26016.91251341  .00000448  00000+0  48269-4 0  9994
2 57742  43.0040  93.2984 0001296 272.2459  87.8235 15.02535885132148
STARLINK-30361          
1 57743U 23131M   26016.89586286 -.00000202  00000+0  13231-6 0  9993
2 57743  43.0034  93.1702 0001403 271.8415  88.2266 15.02537837132133
STARLINK-30363          
1 57744U 23131N   26016.85187578 -.00000388  00000+0 -13623-4 0  9990
2 57744  43.0032  80.9291 0001619 285.4491  74.6172 15.02542025132278
STARLINK-30362          
1 57745U 23131P   26016.89253274 -.00000180  00000+0  17389-5 0  9995
2 57745  43.0023  93.1458 0001422 275.6064  84.4616 15.02539095132139
STARLINK-30350          
1 57746U 23131Q   26016.92249942 -.00000111  00000+0  68274-5 0  9990
2 57746  43.0023  93.3548 0001633 274.6484  85.4172 15.02538227132135
STARLINK-30307          
1 57747U 23131R   26016.89364536 -.00000085  00000+0  87850-5 0  9995
2 57747  43.0032  93.1550 0001062 285.6953  74.3772 15.02535843132130
STARLINK-30356          
1 57748U 23131S   26016.88587170  .00000208  00000+0  30433-4 0  9996
2 57748  43.0030  93.0959 0001285 275.7254  84.3442 15.02538681132130
